ONEWEB-0716             
1 55177U 23004AP  25230.81919150  .00000021  00000+0  20245-4 0  9999
2 55177  87.9022  66.0460 0001875  81.9388 278.1956 13.17648227127767
ONEWEB-0717             
1 55178U 23004AQ  25230.57449694  .00000111  00000+0  25190-3 0  9997
2 55178  87.9027  66.0552 0001862 112.0350 248.0979 13.17651411127788
ONEWEB-0719             
1 55179U 23004AR  25230.58464711  .00000021  00000+0  20313-4 0  9999
2 55179  87.9031  66.0360 0001972  85.3635 274.7721 13.17648669127738
ONEWEB-0530             
1 55796U 23029A   25230.51782950  .00000058  00000+0  11191-3 0  9995
2 55796  87.9299 334.8018 0002314 109.5532 250.5851 13.20771067121194
ONEWEB-0534             
1 55797U 23029B   25230.65672822  .00000021  00000+0  20875-4 0  9997
2 55797  87.9295 334.7801 0001968  96.2062 263.9295 13.20771201121903
ONEWEB-0556             
1 55798U 23029C   25230.58727269 -.00000010  00000+0 -56151-4 0  9992
2 55798  87.9305 334.7876 0002674  94.6863 265.4576 13.20770106121209
ONEWEB-0562             
1 55799U 23029D   25230.57465854  .00000059  00000+0  11322-3 0  9992
2 55799  87.9290 334.7799 0002807 108.1323 252.0116 13.20773126121204
ONEWEB-0563             
1 55800U 23029E   25230.56834516 -.00000035  00000+0 -11759-3 0  9999
2 55800  87.9300 334.7995 0002031  93.2320 266.9045 13.20772906121195
